2024-05-28 18:37:31.221439
NOAA 15                 1 25338U 98030A   24149.52822608  .00000304  00000+0  14394-3 0  99942 25338  98.5694 177.0647 0010753  28.9478 331.2297 14.26587781354637DMSP 5D-3 F16 (USA 172) 1 28054U 03048A   24149.55840045  .00000121  00000+0  87780-4 0  99922 28054  99.0206 155.8431 0008404 105.9849   1.3487 14.14029706 63507NOAA 18                 1 28654U 05018A   24149.45500860  .00000283  00000+0  17468-3 0  99982 28654  98.8743 226.5833 0015322 118.1096 242.1627 14.13217129980477METEOSAT-9 (MSG-2)      1 28912U 05049B   24149.33452192  .00000133  00000+0  00000+0 0  99942 28912   7.6420  61.0354 0001636   0.5142 350.9720  1.00268539 67553EWS-G1 (GOES 13)        1 29155U 06018A   24149.46599344 -.00000222  00000+0  00000+0 0  99962 29155   2.5750  85.5054 0082624 254.9684  30.1675  0.99107612 65963DMSP 5D-3 F17 (USA 191) 1 29522U 06050A   24149.52165499  .00000127  00000+0  88944-4 0  99982 29522  98.7439 160.5041 0010905  41.2073 318.9921 14.14479239906418FENGYUN 3A              1 32958U 08026A   24149.43187682  .00000198  00000+0  11509-3 0  99982 32958  98.6032  97.1231 0009598 125.0875 235.1202 14.19094363829159FENGYUN 2E              1 33463U 08066A   24148.77879529 -.00000285  00000+0  00000+0 0  99962 33463   7.5389  60.7407 0002634  31.5505 211.9875  0.99122972 56567NOAA 19                 1 33591U 09005A   24149.47441550  .00000238  00000+0  15179-3 0  99932 33591  99.0481 205.0639 0013485 352.3873   7.7092 14.13013951788849GOES 14                 1 35491U 09033A   24149.45320111 -.00000058  00000+0  00000+0 0  99962 35491   0.2936 106.1818 0003895 339.2619 215.5859  1.00272247 54635DMSP 5D-3 F18 (USA 210) 1 35951U 09057A   24149.52340239  .00000355  00000+0  20928-3 0  99982 35951  98.8128 125.1391 0010238 218.3237 141.7209 14.14123681753586EWS-G2 (GOES 15)        1 36411U 10008A   24149.48696589  .00000044  00000+0  00000+0 0  99952 36411   0.2487  90.0187 0001356  99.2212 294.2089  1.00266033 52117COMS 1                  1 36744U 10032A   24148.90327000 -.00000336  00000+0  00000+0 0  99912 36744   2.8817  84.6545 0001097 346.0003 268.5918  1.00270603 43563FENGYUN 3B              1 37214U 10059A   24149.55420416  .00000130  00000+0  91564-4 0  99912 37214  99.0558 177.3720 0022834 146.0243 329.5674 14.14498528701472SUOMI NPP               1 37849U 11061A   24149.51856580  .00000154  00000+0  93728-4 0  99902 37849  98.7216  87.7940 0001066  55.7123 304.4154 14.19575496652079FENGYUN 2F              1 38049U 12002A   24148.74413792 -.00000349  00000+0  00000+0 0  99902 38049   5.5442  73.3316 0002574  77.9264 114.7138  1.00268778 45353METEOSAT-10 (MSG-3)     1 38552U 12035B   24148.75899799  .00000003  00000+0  00000+0 0  99972 38552   2.9201  60.8250 0001749 306.1502 152.1593  1.00274368 43338METOP-B                 1 38771U 12049A   24149.46513374  .00000196  00000+0  10896-3 0  99972 38771  98.6282 207.1291 0001898  93.7160 266.4235 14.21542532606747INSAT-3D                1 39216U 13038B   24148.77537293 -.00000148  00000+0  00000+0 0  99902 39216   0.0228 263.0388 0000659  12.6576 331.3410  1.00274390 39555FENGYUN 3C              1 39260U 13052A   24149.52605579  .00000152  00000+0  97334-4 0  99972 39260  98.4283 150.1753 0011684  29.7703 330.4135 14.16208759552549METEOR-M 2              1 40069U 14037A   24149.52578520  .00000201  00000+0  11197-3 0  99922 40069  98.4360 144.6433 0006874  61.7853 298.4019 14.20968584512830HIMAWARI-8              1 40267U 14060A   24148.64386223 -.00000266  00000+0  00000+0 0  99962 40267   0.0534 131.3164 0001210 329.2785 157.5503  1.00270481 35234FENGYUN 2G              1 40367U 14090A   24148.92198882 -.00000294  00000+0  00000+0 0  99942 40367   3.7394  81.7587 0002685 108.3423 127.2957  1.00278906 34515METEOSAT-11 (MSG-4)     1 40732U 15034A   24149.11869390  .00000070  00000+0  00000+0 0  99912 40732   1.3391  68.6016 0001609 162.0375  67.4575  1.00272771 32491ELEKTRO-L 2             1 41105U 15074A   24149.18560521 -.00000108  00000+0  00000+0 0  99942 41105   4.7915  79.6998 0000296 195.5057  23.3696  1.00271939 30998INSAT-3DR               1 41752U 16054A   24148.91368902 -.00000068  00000+0  00000+0 0  99952 41752   0.1456  92.4840 0010100 180.1583  16.2374  1.00270925 28292HIMAWARI-9              1 41836U 16064A   24149.43799567 -.00000267  00000+0  00000+0 0  99932 41836   0.0402 125.9204 0001268 348.1246  70.8562  1.00271443 27782GOES 16                 1 41866U 16071A   24148.81560247 -.00000239  00000+0  00000+0 0  99952 41866   0.0505 264.0029 0000572 168.8384  31.4334  1.00272013 27588FENGYUN 4A              1 41882U 16077A   24149.06257517 -.00000195  00000+0  00000+0 0  99912 41882   0.4077  85.0807 0007796 341.9589 288.4769  1.00280255 27454CYGFM05                 1 41884U 16078A   24148.22234326  .00009561  00000+0  35653-3 0  99952 41884  34.9521  73.7741 0011777 358.6829   1.3853 15.26590348412879CYGFM04                 1 41885U 16078B   24148.87635766  .00008740  00000+0  31717-3 0  99952 41885  34.9471  53.9019 0009147  25.1308 334.9851 15.27529221413066CYGFM02                 1 41886U 16078C   24149.42784507  .00009681  00000+0  34762-3 0  99942 41886  34.9530  52.7078 0011763  22.1043 338.0177 15.27832559413309CYGFM01                 1 41887U 16078D   24149.18195800  .00008931  00000+0  33588-3 0  99922 41887  34.9520  71.4921 0012380 355.1685   4.8909 15.26316425413074CYGFM08                 1 41888U 16078E   24149.14735999  .00009584  00000+0  34935-3 0  99902 41888  34.9511  60.0841 0012423  19.1877 340.9304 15.27331521413155CYGFM07                 1 41890U 16078G   24149.06337570  .00008873  00000+0  32081-3 0  99972 41890  34.9521  52.1321 0008952  24.8446 335.2699 15.27648595413258CYGFM03                 1 41891U 16078H   24149.09710045  .00008802  00000+0  31910-3 0  99952 41891  34.9501  53.0842 0009963  12.3757 347.7201 15.27551930413247FENGYUN 3D              1 43010U 17072A   24149.49744354  .00000151  00000+0  93312-4 0  99932 43010  98.9097 104.0381 0002415  55.2347 304.9056 14.19348654338621NOAA 20 (JPSS-1)        1 43013U 17073A   24149.53642815  .00000113  00000+0  74393-4 0  99972 43013  98.7059  87.7872 0000227  51.2679 308.8517 14.19589668338116GOES 17                 1 43226U 18022A   24149.33035407 -.00000083  00000+0  00000+0 0  99952 43226   0.0453 124.0144 0000851 321.2099 175.3589  1.00271495 22918FENGYUN 2H              1 43491U 18050A   24149.06109580 -.00000121  00000+0  00000+0 0  99972 43491   1.0911  87.4060 0001690  25.1815 234.8682  1.00270762 21997METOP-C                 1 43689U 18087A   24149.50279706  .00000177  00000+0  10096-3 0  99932 43689  98.7243 209.0082 0002990 127.8150 232.3298 14.21479673288326GEO-KOMPSAT-2A          1 43823U 18100A   24149.42868131 -.00000336  00000+0  00000+0 0  99942 43823   0.0592 110.0410 0002346 330.0040  89.0007  1.00269708 20144METEOR-M2 2             1 44387U 19038A   24149.54525186  .00000067  00000+0  48925-4 0  99972 44387  98.8257 118.6934 0002028  50.8126 309.3232 14.23889061254592ARKTIKA-M 1             1 47719U 21016A   24143.83019160  .00000184  00000+0  00000+0 0  99912 47719  63.1390 154.6757 6933127 268.7537  17.9871  2.00614730 23636FENGYUN 3E              1 49008U 21062A   24149.54415889  .00000031  00000+0  35147-4 0  99932 49008  98.7319 151.0875 0002771  89.2791 270.8703 14.19755374150201GOES 18                 1 51850U 22021A   24149.55396862  .00000104  00000+0  00000+0 0  99932 51850   0.0361 131.9833 0000632 286.0764 250.9487  1.00270485  8283NOAA 21 (JPSS-2)        1 54234U 22150A   24148.79528976  .00000162  00000+0  97662-4 0  99922 54234  98.7512  86.9293 0001021 126.4962 233.6309 14.19517920 80084METEOSAT-12 (MTG-I1)    1 54743U 22170C   24148.87549222  .00000001  00000+0  00000+0 0  99922 54743   0.4809  36.7304 0001937  37.8171 126.0389  1.00269736  5453TIANMU-1 03             1 55973U 23039A   24149.55563317  .00007850  00000+0  32695-3 0  99982 55973  97.4675 300.2649 0010299 211.3852 148.6772 15.23958122 65864TIANMU-1 04             1 55974U 23039B   24149.47357220  .00007520  00000+0  31329-3 0  99912 55974  97.4597 299.7640 0010487 211.2288 148.8327 15.23963852 65844TIANMU-1 05             1 55975U 23039C   24149.52292612  .00007409  00000+0  30876-3 0  99932 55975  97.4644 300.1277 0008947 215.3307 144.7338 15.23971673 65843TIANMU-1 06             1 55976U 23039D   24149.50649921  .00007832  00000+0  32622-3 0  99922 55976  97.4659 300.2255 0008721 220.4800 139.5789 15.23971165 65840METEOR-M2 3             1 57166U 23091A   24149.51022714  .00000026  00000+0  30497-4 0  99962 57166  98.7138 204.3588 0004093 170.8243 189.3011 14.23895382 47823TIANMU-1 07             1 57399U 23101A   24149.50527767  .00005282  00000+0  27136-3 0  99972 57399  97.3634 207.2131 0003569 245.8531 114.2330 15.16898236 47446TIANMU-1 08             1 57400U 23101B   24149.47481874  .00004367  00000+0  22482-3 0  99962 57400  97.3623 207.0590 0005713 257.0284 103.0311 15.16912633 47439TIANMU-1 09             1 57401U 23101C   24149.45737767  .00005390  00000+0  27686-3 0  99982 57401  97.3578 206.8971 0006225 252.0453 108.0102 15.16883448 47435TIANMU-1 10             1 57402U 23101D   24149.48923331  .00004791  00000+0  24656-3 0  99942 57402  97.3659 207.1830 0008385 251.6690 108.3632 15.16862868 47435FENGYUN 3F              1 57490U 23111A   24149.49943109  .00000115  00000+0  75031-4 0  99982 57490  98.7701 218.8112 0001831 116.6650 243.4714 14.19818838 42473TIANMU-1 11             1 58645U 23205A   24149.50262645  .00004439  00000+0  24163-3 0  99982 58645  97.4039 175.1033 0013374 110.9013 249.3653 15.14869024 23530TIANMU-1 12             1 58646U 23205B   24149.51858178  .00004181  00000+0  22770-3 0  99982 58646  97.4025 175.0529 0012016 104.1395 256.1173 15.14897486 23520TIANMU-1 13             1 58647U 23205C   24149.55122513  .00005379  00000+0  29197-3 0  99902 58647  97.4055 175.0710 0011869  91.8531 268.4060 15.14892293 23527TIANMU-1 14             1 58648U 23205D   24149.53513968  .00004650  00000+0  25281-3 0  99982 58648  97.3981 174.9393 0012391  92.2616 268.0036 15.14897512 23528TIANMU-1 19             1 58660U 23208A   24149.54112217  .00005698  00000+0  30997-3 0  99912 58660  97.4095 262.4279 0010544  77.6153 282.6259 15.14797825 23194TIANMU-1 20             1 58661U 23208B   24149.55500453  .00005056  00000+0  26925-3 0  99902 58661  97.4022 262.4105 0011504  86.2676 273.9872 15.15597693 23204TIANMU-1 21             1 58662U 23208C   24149.55933943  .00005508  00000+0  28598-3 0  99952 58662  97.4061 262.6373 0011129  86.7030 273.5476 15.16462061 23217TIANMU-1 22             1 58663U 23208D   24149.55730102  .00004897  00000+0  26722-3 0  99952 58663  97.4080 262.5243 0006822  97.3919 262.8089 15.14781658 23206TIANMU-1 15             1 58700U 24004A   24149.53176737  .00004983  00000+0  27153-3 0  99932 58700  97.4626 331.0047 0011426 118.1938 242.0450 15.14797562 21792TIANMU-1 16             1 58701U 24004B   24149.51510387  .00005314  00000+0  28902-3 0  99972 58701  97.4554 330.8864 0011371 123.4366 236.7956 15.14832297 21796TIANMU-1 17             1 58702U 24004C   24149.49970787  .00005271  00000+0  28704-3 0  99912 58702  97.4599 330.9901 0009300 117.7355 242.4821 15.14812469 21785TIANMU-1 18             1 58703U 24004D   24149.54948658  .00004105  00000+0  22413-3 0  99962 58703  97.4612 331.1054 0008597 109.1352 251.0812 15.14850504 21792INSAT-3DS               1 58990U 24033A   24148.93660557 -.00000156  00000+0  00000+0 0  99942 58990   0.1483  91.4004 0011944 358.4775 216.2770  1.00270547  1298METEOR-M2 4             1 59051U 24039A   24149.50655038  .00000056  00000+0  44551-4 0  99932 59051  98.5965 111.8859 0007030 172.4066 187.7220 14.22227764 12695